[
  {
    "OBJECT_NAME": "STARLINK-1042",
    "OBJECT_ID": "19074AL",
    "EPOCH": "2025-11-11T06:37:33.144384",
    "MEAN_MOTION": 15.43628987,
    "ECCENTRICITY": 0.0003465,
    "INCLINATION": 53.0474,
    "RA_OF_ASC_NODE": 300.2555,
    "ARG_OF_PERICENTER": 107.8236,
    "MEAN_ANOMALY": 252.3147,
    "EPHEMERIS_TYPE": 0,
    "CLASSIFICATION_TYPE": "U",
    "NORAD_CAT_ID": 44747,
    "ELEMENT_SET_NO": 999,
    "REV_AT_EPOCH": 33174,
    "BSTAR": 0.00062817,
    "MEAN_MOTION_DOT": 0.00028413,
    "MEAN_MOTION_DDOT": 0.0,
    "TLE_LINE1": "1 44747U 19074AL  25315.27607806  .00028413  00000+0  62817-3 0  9993",
    "TLE_LINE2": "2 44747  53.0474 300.2555 0003465 107.8236 252.3147 15.43628987331741",
    "COMMENT": "Grouped by shell and plane from TLE"
  },
  {
    "OBJECT_NAME": "STARLINK-1279",
    "OBJECT_ID": "20019A",
    "EPOCH": "2025-11-11T06:15:37.004544",
    "MEAN_MOTION": 15.36021228,
    "ECCENTRICITY": 0.0005623,
    "INCLINATION": 53.0518,
    "RA_OF_ASC_NODE": 303.5332,
    "ARG_OF_PERICENTER": 45.1492,
    "MEAN_ANOMALY": 314.9966,
    "EPHEMERIS_TYPE": 0,
    "CLASSIFICATION_TYPE": "U",
    "NORAD_CAT_ID": 45360,
    "ELEMENT_SET_NO": 999,
    "REV_AT_EPOCH": 31235,
    "BSTAR": 0.0033134,
    "MEAN_MOTION_DOT": 0.00119453,
    "MEAN_MOTION_DDOT": 0.0,
    "TLE_LINE1": "1 45360U 20019A   25315.26084496  .00119453  00000+0  33134-2 0  9993",
    "TLE_LINE2": "2 45360  53.0518 303.5332 0005623  45.1492 314.9966 15.36021228312354",
    "COMMENT": "Grouped by shell and plane from TLE"
  },
  {
    "OBJECT_NAME": "STARLINK-1274",
    "OBJECT_ID": "20019AD",
    "EPOCH": "2025-11-11T05:45:03.727008",
    "MEAN_MOTION": 15.30462798,
    "ECCENTRICITY": 0.0003188,
    "INCLINATION": 53.0365,
    "RA_OF_ASC_NODE": 301.8451,
    "ARG_OF_PERICENTER": 338.7937,
    "MEAN_ANOMALY": 21.2929,
    "EPHEMERIS_TYPE": 0,
    "CLASSIFICATION_TYPE": "U",
    "NORAD_CAT_ID": 45387,
    "ELEMENT_SET_NO": 999,
    "REV_AT_EPOCH": 31238,
    "BSTAR": 0.0032694,
    "MEAN_MOTION_DOT": 0.00098577,
    "MEAN_MOTION_DDOT": 0.0,
    "TLE_LINE1": "1 45387U 20019AD  25315.23962647  .00098577  00000+0  32694-2 0  9995",
    "TLE_LINE2": "2 45387  53.0365 301.8451 0003188 338.7937  21.2929 15.30462798312380",
    "COMMENT": "Grouped by shell and plane from TLE"
  },
  {
    "OBJECT_NAME": "STARLINK-1255",
    "OBJECT_ID": "20019AR",
    "EPOCH": "2025-11-11T05:53:35.167488",
    "MEAN_MOTION": 15.31893388,
    "ECCENTRICITY": 0.0004194,
    "INCLINATION": 53.05,
    "RA_OF_ASC_NODE": 304.026,
    "ARG_OF_PERICENTER": 58.9738,
    "MEAN_ANOMALY": 301.1673,
    "EPHEMERIS_TYPE": 0,
    "CLASSIFICATION_TYPE": "U",
    "NORAD_CAT_ID": 45399,
    "ELEMENT_SET_NO": 999,
    "REV_AT_EPOCH": 31216,
    "BSTAR": 0.0035634,
    "MEAN_MOTION_DOT": 0.00112596,
    "MEAN_MOTION_DDOT": 0.0,
    "TLE_LINE1": "1 45399U 20019AR  25315.24554592  .00112596  00000+0  35634-2 0  9990",
    "TLE_LINE2": "2 45399  53.0500 304.0260 0004194  58.9738 301.1673 15.31893388312161",
    "COMMENT": "Grouped by shell and plane from TLE"
  },
  {
    "OBJECT_NAME": "STARLINK-1740",
    "OBJECT_ID": "20070AL",
    "EPOCH": "2025-11-11T08:00:03.000384",
    "MEAN_MOTION": 15.52950074,
    "ECCENTRICITY": 0.0012516,
    "INCLINATION": 53.0467,
    "RA_OF_ASC_NODE": 306.4723,
    "ARG_OF_PERICENTER": 3.1412,
    "MEAN_ANOMALY": 186.0233,
    "EPHEMERIS_TYPE": 0,
    "CLASSIFICATION_TYPE": "U",
    "NORAD_CAT_ID": 46566,
    "ELEMENT_SET_NO": 999,
    "REV_AT_EPOCH": 591,
    "BSTAR": 0.0034651,
    "MEAN_MOTION_DOT": 0.00225993,
    "MEAN_MOTION_DDOT": 0.0,
    "TLE_LINE1": "1 46566U 20070AL  25315.33336806  .00225993  00000+0  34651-2 0  9994",
    "TLE_LINE2": "2 46566  53.0467 306.4723 0012516   3.1412 186.0233 15.52950074  5911",
    "COMMENT": "Grouped by shell and plane from TLE"
  },
  {
    "OBJECT_NAME": "STARLINK-1712",
    "OBJECT_ID": "20070BB",
    "EPOCH": "2025-11-11T05:05:03.933312",
    "MEAN_MOTION": 15.4487629,
    "ECCENTRICITY": 0.0003379,
    "INCLINATION": 53.0521,
    "RA_OF_ASC_NODE": 302.6989,
    "ARG_OF_PERICENTER": 284.3255,
    "MEAN_ANOMALY": 75.7376,
    "EPHEMERIS_TYPE": 0,
    "CLASSIFICATION_TYPE": "U",
    "NORAD_CAT_ID": 46581,
    "ELEMENT_SET_NO": 999,
    "REV_AT_EPOCH": 28229,
    "BSTAR": 0.0019223000000000003,
    "MEAN_MOTION_DOT": 0.00092385,
    "MEAN_MOTION_DDOT": 0.0,
    "TLE_LINE1": "1 46581U 20070BB  25315.21185108  .00092385  00000+0  19223-2 0  9990",
    "TLE_LINE2": "2 46581  53.0521 302.6989 0003379 284.3255  75.7376 15.44876290282294",
    "COMMENT": "Grouped by shell and plane from TLE"
  },
  {
    "OBJECT_NAME": "STARLINK-31747",
    "OBJECT_ID": "24076A",
    "EPOCH": "2025-11-11T01:39:58.281984",
    "MEAN_MOTION": 15.27597448,
    "ECCENTRICITY": 0.0001804,
    "INCLINATION": 43.0007,
    "RA_OF_ASC_NODE": 308.3209,
    "ARG_OF_PERICENTER": 290.0707,
    "MEAN_ANOMALY": 69.995,
    "EPHEMERIS_TYPE": 0,
    "CLASSIFICATION_TYPE": "U",
    "NORAD_CAT_ID": 59564,
    "ELEMENT_SET_NO": 999,
    "REV_AT_EPOCH": 8847,
    "BSTAR": 6.5153e-05,
    "MEAN_MOTION_DOT": 1.532e-05,
    "MEAN_MOTION_DDOT": 0.0,
    "TLE_LINE1": "1 59564U 24076A   25315.06942456  .00001532  00000+0  65153-4 0  9994",
    "TLE_LINE2": "2 59564  43.0007 308.3209 0001804 290.0707  69.9950 15.27597448 88475",
    "COMMENT": "Grouped by shell and plane from TLE"
  },
  {
    "OBJECT_NAME": "STARLINK-32262",
    "OBJECT_ID": "24155Q",
    "EPOCH": "2025-11-11T06:31:50.132928",
    "MEAN_MOTION": 15.30204316,
    "ECCENTRICITY": 0.0001495,
    "INCLINATION": 53.1601,
    "RA_OF_ASC_NODE": 307.1185,
    "ARG_OF_PERICENTER": 106.5782,
    "MEAN_ANOMALY": 253.5383,
    "EPHEMERIS_TYPE": 0,
    "CLASSIFICATION_TYPE": "U",
    "NORAD_CAT_ID": 60938,
    "ELEMENT_SET_NO": 999,
    "REV_AT_EPOCH": 6843,
    "BSTAR": 0.00010324,
    "MEAN_MOTION_DOT": 2.7e-05,
    "MEAN_MOTION_DDOT": 0.0,
    "TLE_LINE1": "1 60938U 24155Q   25315.27210802  .00002700  00000+0  10324-3 0  9992",
    "TLE_LINE2": "2 60938  53.1601 307.1185 0001495 106.5782 253.5383 15.30204316 68432",
    "COMMENT": "Grouped by shell and plane from TLE"
  },
  {
    "OBJECT_NAME": "STARLINK-33871",
    "OBJECT_ID": "25101A",
    "EPOCH": "2025-11-11T06:55:38.383680",
    "MEAN_MOTION": 15.27645739,
    "ECCENTRICITY": 0.0001194,
    "INCLINATION": 43.0024,
    "RA_OF_ASC_NODE": 306.945,
    "ARG_OF_PERICENTER": 253.3247,
    "MEAN_ANOMALY": 106.7474,
    "EPHEMERIS_TYPE": 0,
    "CLASSIFICATION_TYPE": "U",
    "NORAD_CAT_ID": 63994,
    "ELEMENT_SET_NO": 999,
    "REV_AT_EPOCH": 2887,
    "BSTAR": 0.0012773,
    "MEAN_MOTION_DOT": 0.00035125,
    "MEAN_MOTION_DDOT": 0.0,
    "TLE_LINE1": "1 63994U 25101A   25315.28863870  .00035125  00000+0  12773-2 0  9995",
    "TLE_LINE2": "2 63994  43.0024 306.9450 0001194 253.3247 106.7474 15.27645739 28877",
    "COMMENT": "Grouped by shell and plane from TLE"
  },
  {
    "OBJECT_NAME": "STARLINK-34154",
    "OBJECT_ID": "25101B",
    "EPOCH": "2025-11-11T01:32:27.807072",
    "MEAN_MOTION": 15.27607588,
    "ECCENTRICITY": 0.0001346,
    "INCLINATION": 42.9985,
    "RA_OF_ASC_NODE": 307.846,
    "ARG_OF_PERICENTER": 197.8256,
    "MEAN_ANOMALY": 162.2549,
    "EPHEMERIS_TYPE": 0,
    "CLASSIFICATION_TYPE": "U",
    "NORAD_CAT_ID": 63995,
    "ELEMENT_SET_NO": 999,
    "REV_AT_EPOCH": 2891,
    "BSTAR": 0.001109,
    "MEAN_MOTION_DOT": 0.00030406,
    "MEAN_MOTION_DDOT": 0.0,
    "TLE_LINE1": "1 63995U 25101B   25315.06421073  .00030406  00000+0  11090-2 0  9995",
    "TLE_LINE2": "2 63995  42.9985 307.8460 0001346 197.8256 162.2549 15.27607588 28919",
    "COMMENT": "Grouped by shell and plane from TLE"
  },
  {
    "OBJECT_NAME": "STARLINK-34158",
    "OBJECT_ID": "25101C",
    "EPOCH": "2025-11-11T06:03:50.250816",
    "MEAN_MOTION": 15.27618193,
    "ECCENTRICITY": 0.0001605,
    "INCLINATION": 43.0037,
    "RA_OF_ASC_NODE": 306.7227,
    "ARG_OF_PERICENTER": 270.4002,
    "MEAN_ANOMALY": 89.6666,
    "EPHEMERIS_TYPE": 0,
    "CLASSIFICATION_TYPE": "U",
    "NORAD_CAT_ID": 63996,
    "ELEMENT_SET_NO": 999,
    "REV_AT_EPOCH": 2894,
    "BSTAR": 0.0018091,
    "MEAN_MOTION_DOT": 0.00049916,
    "MEAN_MOTION_DDOT": 0.0,
    "TLE_LINE1": "1 63996U 25101C   25315.25266494  .00049916  00000+0  18091-2 0  9995",
    "TLE_LINE2": "2 63996  43.0037 306.7227 0001605 270.4002  89.6666 15.27618193 28943",
    "COMMENT": "Grouped by shell and plane from TLE"
  },
  {
    "OBJECT_NAME": "STARLINK-34165",
    "OBJECT_ID": "25101D",
    "EPOCH": "2025-11-11T01:04:42.569760",
    "MEAN_MOTION": 15.27596915,
    "ECCENTRICITY": 0.0001345,
    "INCLINATION": 43.005,
    "RA_OF_ASC_NODE": 307.7028,
    "ARG_OF_PERICENTER": 254.0965,
    "MEAN_ANOMALY": 105.9739,
    "EPHEMERIS_TYPE": 0,
    "CLASSIFICATION_TYPE": "U",
    "NORAD_CAT_ID": 63997,
    "ELEMENT_SET_NO": 999,
    "REV_AT_EPOCH": 2891,
    "BSTAR": 0.0012701000000000001,
    "MEAN_MOTION_DOT": 0.00034871,
    "MEAN_MOTION_DDOT": 0.0,
    "TLE_LINE1": "1 63997U 25101D   25315.04493715  .00034871  00000+0  12701-2 0  9997",
    "TLE_LINE2": "2 63997  43.0050 307.7028 0001345 254.0965 105.9739 15.27596915 28913",
    "COMMENT": "Grouped by shell and plane from TLE"
  },
  {
    "OBJECT_NAME": "STARLINK-34150",
    "OBJECT_ID": "25101E",
    "EPOCH": "2025-11-11T00:27:54.912384",
    "MEAN_MOTION": 15.2759251,
    "ECCENTRICITY": 0.0001292,
    "INCLINATION": 43.0019,
    "RA_OF_ASC_NODE": 308.3713,
    "ARG_OF_PERICENTER": 246.5085,
    "MEAN_ANOMALY": 113.5631,
    "EPHEMERIS_TYPE": 0,
    "CLASSIFICATION_TYPE": "U",
    "NORAD_CAT_ID": 63998,
    "ELEMENT_SET_NO": 999,
    "REV_AT_EPOCH": 2890,
    "BSTAR": 0.0011949,
    "MEAN_MOTION_DOT": 0.00032779,
    "MEAN_MOTION_DDOT": 0.0,
    "TLE_LINE1": "1 63998U 25101E   25315.01938556  .00032779  00000+0  11949-2 0  9990",
    "TLE_LINE2": "2 63998  43.0019 308.3713 0001292 246.5085 113.5631 15.27592510 28909",
    "COMMENT": "Grouped by shell and plane from TLE"
  }
]